[{"OBJECT_NAME":"HULIANWANG DIGUI-81","OBJECT_ID":"2025-187J","EPOCH":"2026-03-26T12:09:32.976288","MEAN_MOTION":13.29322637,"ECCENTRICITY":8.83e-5,"INCLINATION":50.0058,"RA_OF_ASC_NODE":142.3664,"ARG_OF_PERICENTER":218.0661,"MEAN_ANOMALY":142.0149,"EPHEMERIS_TYPE":0,"CLASSIFICATION_TYPE":"U","NORAD_CAT_ID":65313,"ELEMENT_SET_NO":999,"REV_AT_EPOCH":2871,"BSTAR":5.8881e-5,"MEAN_MOTION_DOT":-9.7e-7,"MEAN_MOTION_DDOT":0},{"OBJECT_NAME":"HULIANWANG DIGUI-82","OBJECT_ID":"2025-220A","EPOCH":"2026-03-26T12:20:59.737920","MEAN_MOTION":13.24423216,"ECCENTRICITY":0.0002428,"INCLINATION":86.4912,"RA_OF_ASC_NODE":71.7738,"ARG_OF_PERICENTER":83.8557,"MEAN_ANOMALY":276.2853,"EPHEMERIS_TYPE":0,"CLASSIFICATION_TYPE":"U","NORAD_CAT_ID":65817,"ELEMENT_SET_NO":999,"REV_AT_EPOCH":2397,"BSTAR":0.00011858,"MEAN_MOTION_DOT":6.6e-7,"MEAN_MOTION_DDOT":0},{"OBJECT_NAME":"HULIANWANG DIGUI-83","OBJECT_ID":"2025-220B","EPOCH":"2026-03-26T12:10:12.430848","MEAN_MOTION":13.24422379,"ECCENTRICITY":0.0002408,"INCLINATION":86.4935,"RA_OF_ASC_NODE":71.8113,"ARG_OF_PERICENTER":83.9752,"MEAN_ANOMALY":276.1656,"EPHEMERIS_TYPE":0,"CLASSIFICATION_TYPE":"U","NORAD_CAT_ID":65818,"ELEMENT_SET_NO":999,"REV_AT_EPOCH":2397,"BSTAR":0.00010869,"MEAN_MOTION_DOT":6.1e-7,"MEAN_MOTION_DDOT":0},{"OBJECT_NAME":"HULIANWANG DIGUI-84","OBJECT_ID":"2025-220C","EPOCH":"2026-03-26T11:59:16.666944","MEAN_MOTION":13.24422823,"ECCENTRICITY":0.0002389,"INCLINATION":86.4872,"RA_OF_ASC_NODE":71.692,"ARG_OF_PERICENTER":83.318,"MEAN_ANOMALY":276.8226,"EPHEMERIS_TYPE":0,"CLASSIFICATION_TYPE":"U","NORAD_CAT_ID":65819,"ELEMENT_SET_NO":999,"REV_AT_EPOCH":2397,"BSTAR":6.1199e-5,"MEAN_MOTION_DOT":4.1e-7,"MEAN_MOTION_DDOT":0},{"OBJECT_NAME":"HULIANWANG DIGUI-85","OBJECT_ID":"2025-220D","EPOCH":"2026-03-26T11:48:19.289088","MEAN_MOTION":13.24423383,"ECCENTRICITY":0.0002411,"INCLINATION":86.4933,"RA_OF_ASC_NODE":71.8011,"ARG_OF_PERICENTER":84.1625,"MEAN_ANOMALY":275.9784,"EPHEMERIS_TYPE":0,"CLASSIFICATION_TYPE":"U","NORAD_CAT_ID":65820,"ELEMENT_SET_NO":999,"REV_AT_EPOCH":2397,"BSTAR":3.6774e-5,"MEAN_MOTION_DOT":3.0e-7,"MEAN_MOTION_DDOT":0},{"OBJECT_NAME":"HULIANWANG DIGUI-86","OBJECT_ID":"2025-220E","EPOCH":"2026-03-26T11:37:35.734368","MEAN_MOTION":13.24422213,"ECCENTRICITY":0.0002407,"INCLINATION":86.4912,"RA_OF_ASC_NODE":71.758,"ARG_OF_PERICENTER":84.1123,"MEAN_ANOMALY":276.0285,"EPHEMERIS_TYPE":0,"CLASSIFICATION_TYPE":"U","NORAD_CAT_ID":65821,"ELEMENT_SET_NO":999,"REV_AT_EPOCH":2397,"BSTAR":2.5331e-5,"MEAN_MOTION_DOT":2.6e-7,"MEAN_MOTION_DDOT":0},{"OBJECT_NAME":"HULIANWANG DIGUI-87","OBJECT_ID":"2025-231A","EPOCH":"2026-03-26T11:13:43.791744","MEAN_MOTION":13.29332089,"ECCENTRICITY":7.19e-5,"INCLINATION":49.9984,"RA_OF_ASC_NODE":112.5414,"ARG_OF_PERICENTER":276.1,"MEAN_ANOMALY":83.979,"EPHEMERIS_TYPE":0,"CLASSIFICATION_TYPE":"U","NORAD_CAT_ID":65995,"ELEMENT_SET_NO":999,"REV_AT_EPOCH":2188,"BSTAR":6.6241e-5,"MEAN_MOTION_DOT":-9.3e-7,"MEAN_MOTION_DDOT":0},{"OBJECT_NAME":"HULIANWANG DIGUI-88","OBJECT_ID":"2025-231B","EPOCH":"2026-03-26T11:25:48.673920","MEAN_MOTION":13.29331135,"ECCENTRICITY":7.72e-5,"INCLINATION":49.9971,"RA_OF_ASC_NODE":112.5693,"ARG_OF_PERICENTER":280.1191,"MEAN_ANOMALY":79.9594,"EPHEMERIS_TYPE":0,"CLASSIFICATION_TYPE":"U","NORAD_CAT_ID":65996,"ELEMENT_SET_NO":999,"REV_AT_EPOCH":2188,"BSTAR":6.8891e-5,"MEAN_MOTION_DOT":-9.2e-7,"MEAN_MOTION_DDOT":0},{"OBJECT_NAME":"HULIANWANG DIGUI-89","OBJECT_ID":"2025-231C","EPOCH":"2026-03-26T11:01:41.988864","MEAN_MOTION":13.29331705,"ECCENTRICITY":7.82e-5,"INCLINATION":49.9949,"RA_OF_ASC_NODE":112.453,"ARG_OF_PERICENTER":279.5728,"MEAN_ANOMALY":80.5056,"EPHEMERIS_TYPE":0,"CLASSIFICATION_TYPE":"U","NORAD_CAT_ID":65997,"ELEMENT_SET_NO":999,"REV_AT_EPOCH":2188,"BSTAR":5.2706e-5,"MEAN_MOTION_DOT":-1.0e-6,"MEAN_MOTION_DDOT":0},{"OBJECT_NAME":"HULIANWANG DIGUI-90","OBJECT_ID":"2025-231D","EPOCH":"2026-03-26T09:01:24.727296","MEAN_MOTION":13.29331907,"ECCENTRICITY":7.59e-5,"INCLINATION":49.9982,"RA_OF_ASC_NODE":112.7173,"ARG_OF_PERICENTER":280.1565,"MEAN_ANOMALY":79.9222,"EPHEMERIS_TYPE":0,"CLASSIFICATION_TYPE":"U","NORAD_CAT_ID":65998,"ELEMENT_SET_NO":999,"REV_AT_EPOCH":2187,"BSTAR":5.5777e-5,"MEAN_MOTION_DOT":-9.8e-7,"MEAN_MOTION_DDOT":0},{"OBJECT_NAME":"HULIANWANG DIGUI-91","OBJECT_ID":"2025-231E","EPOCH":"2026-03-26T12:25:54.444000","MEAN_MOTION":13.29331722,"ECCENTRICITY":7.68e-5,"INCLINATION":49.9997,"RA_OF_ASC_NODE":112.1615,"ARG_OF_PERICENTER":280.0324,"MEAN_ANOMALY":80.0461,"EPHEMERIS_TYPE":0,"CLASSIFICATION_TYPE":"U","NORAD_CAT_ID":65999,"ELEMENT_SET_NO":999,"REV_AT_EPOCH":2189,"BSTAR":5.3771e-5,"MEAN_MOTION_DOT":-9.9e-7,"MEAN_MOTION_DDOT":0},{"OBJECT_NAME":"HULIANWANG DIGUI-92","OBJECT_ID":"2025-231F","EPOCH":"2026-03-26T12:13:51.464352","MEAN_MOTION":13.29332352,"ECCENTRICITY":7.68e-5,"INCLINATION":50.0038,"RA_OF_ASC_NODE":112.1696,"ARG_OF_PERICENTER":279.8755,"MEAN_ANOMALY":80.203,"EPHEMERIS_TYPE":0,"CLASSIFICATION_TYPE":"U","NORAD_CAT_ID":66000,"ELEMENT_SET_NO":999,"REV_AT_EPOCH":2189,"BSTAR":7.5944e-5,"MEAN_MOTION_DOT":-8.9e-7,"MEAN_MOTION_DDOT":0},{"OBJECT_NAME":"HULIANWANG DIGUI-93","OBJECT_ID":"2025-231G","EPOCH":"2026-03-26T11:49:51.951360","MEAN_MOTION":13.29331448,"ECCENTRICITY":7.53e-5,"INCLINATION":50.0005,"RA_OF_ASC_NODE":112.0447,"ARG_OF_PERICENTER":280.5873,"MEAN_ANOMALY":79.4914,"EPHEMERIS_TYPE":0,"CLASSIFICATION_TYPE":"U","NORAD_CAT_ID":66001,"ELEMENT_SET_NO":999,"REV_AT_EPOCH":2189,"BSTAR":7.3064e-5,"MEAN_MOTION_DOT":-9.0e-7,"MEAN_MOTION_DDOT":0},{"OBJECT_NAME":"HULIANWANG DIGUI-94","OBJECT_ID":"2025-231H","EPOCH":"2026-03-26T12:01:49.631232","MEAN_MOTION":13.29332597,"ECCENTRICITY":7.78e-5,"INCLINATION":50.0044,"RA_OF_ASC_NODE":112.1386,"ARG_OF_PERICENTER":280.8861,"MEAN_ANOMALY":79.1923,"EPHEMERIS_TYPE":0,"CLASSIFICATION_TYPE":"U","NORAD_CAT_ID":66002,"ELEMENT_SET_NO":999,"REV_AT_EPOCH":2189,"BSTAR":7.1465e-5,"MEAN_MOTION_DOT":-9.1e-7,"MEAN_MOTION_DDOT":0},{"OBJECT_NAME":"HULIANWANG DIGUI-95","OBJECT_ID":"2025-231J","EPOCH":"2026-03-26T11:38:08.097216","MEAN_MOTION":13.29327626,"ECCENTRICITY":7.54e-5,"INCLINATION":50.0017,"RA_OF_ASC_NODE":112.0183,"ARG_OF_PERICENTER":278.2109,"MEAN_ANOMALY":81.8678,"EPHEMERIS_TYPE":0,"CLASSIFICATION_TYPE":"U","NORAD_CAT_ID":66003,"ELEMENT_SET_NO":999,"REV_AT_EPOCH":2189,"BSTAR":7.901e-5,"MEAN_MOTION_DOT":-8.7e-7,"MEAN_MOTION_DDOT":0},{"OBJECT_NAME":"HULIANWANG DIGUI-96","OBJECT_ID":"2025-258A","EPOCH":"2026-03-26T10:23:33.882720","MEAN_MOTION":13.29333154,"ECCENTRICITY":6.02e-5,"INCLINATION":50.0035,"RA_OF_ASC_NODE":232.4365,"ARG_OF_PERICENTER":176.1633,"MEAN_ANOMALY":183.9243,"EPHEMERIS_TYPE":0,"CLASSIFICATION_TYPE":"U","NORAD_CAT_ID":66412,"ELEMENT_SET_NO":999,"REV_AT_EPOCH":1872,"BSTAR":8.467e-5,"MEAN_MOTION_DOT":-8.5e-7,"MEAN_MOTION_DDOT":0}]
