HULIANWANG DIGUI-81     
1 65313U 25187J   26085.50663167 -.00000097  00000+0  58881-4 0  9996
2 65313  50.0058 142.3664 0000883 218.0661 142.0149 13.29322637 28714
HULIANWANG DIGUI-82     
1 65817U 25220A   26085.51458030  .00000066  00000+0  11858-3 0  9992
2 65817  86.4912  71.7738 0002428  83.8557 276.2853 13.24423216 23976
HULIANWANG DIGUI-83     
1 65818U 25220B   26085.50708832  .00000061  00000+0  10869-3 0  9996
2 65818  86.4935  71.8113 0002408  83.9752 276.1656 13.24422379 23975
HULIANWANG DIGUI-84     
1 65819U 25220C   26085.49949846  .00000041  00000+0  61199-4 0  9998
2 65819  86.4872  71.6920 0002389  83.3180 276.8226 13.24422823 23971
HULIANWANG DIGUI-85     
1 65820U 25220D   26085.49188992  .00000030  00000+0  36774-4 0  9996
2 65820  86.4933  71.8011 0002411  84.1625 275.9784 13.24423383 23974
HULIANWANG DIGUI-86     
1 65821U 25220E   26085.48444137  .00000026  00000+0  25331-4 0  9994
2 65821  86.4912  71.7580 0002407  84.1123 276.0285 13.24422213 23979
HULIANWANG DIGUI-87     
1 65995U 25231A   26085.46786796 -.00000093  00000+0  66241-4 0  9996
2 65995  49.9984 112.5414 0000719 276.1000  83.9790 13.29332089 21885
HULIANWANG DIGUI-88     
1 65996U 25231B   26085.47625780 -.00000092  00000+0  68891-4 0  9995
2 65996  49.9971 112.5693 0000772 280.1191  79.9594 13.29331135 21884
HULIANWANG DIGUI-89     
1 65997U 25231C   26085.45951376 -.00000100  00000+0  52706-4 0  9995
2 65997  49.9949 112.4530 0000782 279.5728  80.5056 13.29331705 21882
HULIANWANG DIGUI-90     
1 65998U 25231D   26085.37598064 -.00000098  00000+0  55777-4 0  9995
2 65998  49.9982 112.7173 0000759 280.1565  79.9222 13.29331907 21877
HULIANWANG DIGUI-91     
1 65999U 25231E   26085.51799125 -.00000099  00000+0  53771-4 0  9996
2 65999  49.9997 112.1615 0000768 280.0324  80.0461 13.29331722 21896
HULIANWANG DIGUI-92     
1 66000U 25231F   26085.50962343 -.00000089  00000+0  75944-4 0  9998
2 66000  50.0038 112.1696 0000768 279.8755  80.2030 13.29332352 21896
HULIANWANG DIGUI-93     
1 66001U 25231G   26085.49296240 -.00000090  00000+0  73064-4 0  9996
2 66001  50.0005 112.0447 0000753 280.5873  79.4914 13.29331448 21894
HULIANWANG DIGUI-94     
1 66002U 25231H   26085.50126888 -.00000091  00000+0  71465-4 0  9993
2 66002  50.0044 112.1386 0000778 280.8861  79.1923 13.29332597 21891
HULIANWANG DIGUI-95     
1 66003U 25231J   26085.48481594 -.00000087  00000+0  79010-4 0  9998
2 66003  50.0017 112.0183 0000754 278.2109  81.8678 13.29327626 21890
HULIANWANG DIGUI-96     
1 66412U 25258A   26085.43303105 -.00000085  00000+0  84670-4 0  9993
2 66412  50.0035 232.4365 0000602 176.1633 183.9243 13.29333154 18726
